NORAD_CAT_ID,OBJECT_NAME,OBJECT_TYPE,EPOCH,MEAN_MOTION,ECCENTRICITY,INCLINATION,RA_OF_ASC_NODE,ARG_OF_PERICENTER,MEAN_ANOMALY,BSTAR,MEAN_MOTION_DOT,MEAN_MOTION_DDOT,TLE_LINE0,TLE_LINE1,TLE_LINE2,SEMIMAJOR_AXIS,PERIOD,APOGEE,PERIGEE,DECAYED
51879.0,STARLINK-3572,PAYLOAD,2022-03-26 20:00:01,15.73183135,0.0001395,53.2191,29.1909,81.4437,203.2836,0.0003342,0.00046509,0.0,0 STARLINK-3572,1 51879U 22022AD  22085.83334491  .00046509  00000-0  33420-3 0  9999,2 51879  53.2191  29.1909 0001395  81.4437 203.2836 15.73183135  4878,6727.943,91.534,350.747,348.87,0.0
51879.0,STARLINK-3572,PAYLOAD,2022-03-26 22:00:00,15.73225377,0.0001409999999999,53.2192,28.7791,79.0616,317.8845,-0.00026077,-0.00037096,0.0,0 STARLINK-3572,1 51879U 22022AD  22085.91667824 -.00037096  00000-0 -26077-3 0  9990,2 51879  53.2192  28.7791 0001410  79.0616 317.8845 15.73225377  3712,6727.823,91.532,350.636,348.73900000000015,0.0
51879.0,STARLINK-3572,PAYLOAD,2022-03-27 06:00:00,15.73144703,0.0001291,53.2191,27.1315,68.1877,57.7162,0.00066696,0.00093811,0.0,0 STARLINK-3572,1 51879U 22022AD  22086.25001157  .00093811  00000-0  66696-3 0  9995,2 51879  53.2191  27.1315 0001291  68.1877  57.7162 15.73144703  4931,6728.053000000001,91.536,350.786,349.0490000000001,0.0
51879.0,STARLINK-3572,PAYLOAD,2022-03-27 14:00:01,15.73239283,0.0001051,53.2189,25.4802,76.6266,138.1912,-0.00038076,-0.00053804,0.0,0 STARLINK-3572,1 51879U 22022AD  22086.58334491 -.00053804  00000-0 -38076-3 0  9992,2 51879  53.2189  25.4802 0001051  76.6266 138.1912 15.73239283  3710,6727.783,91.531,350.355,348.941,0.0
51879.0,STARLINK-3572,PAYLOAD,2022-03-27 22:00:01,15.73205976,9.62e-05,53.219,23.8309,80.2241,223.6031,0.00028512,0.00039593,0.0,0 STARLINK-3572,1 51879U 22022AD  22086.91668981  .00039593  00000-0  28512-3 0  9994,2 51879  53.2190  23.8309 0000962  80.2241 223.6031 15.73205976  5042,6727.878000000002,91.533,350.39,349.096,0.0
51879.0,STARLINK-3572,PAYLOAD,2022-03-28 14:00:01,15.73176657,0.0001243,53.2191,20.5315,83.5111,38.2735,0.00044372,0.00062051,0.0,0 STARLINK-3572,1 51879U 22022AD  22087.58335648  .00062051  00000-0  44372-3 0  9996,2 51879  53.2191  20.5315 0001243  83.5111  38.2735 15.73176657  3704,6727.962,91.535,350.663,348.99,0.0
51879.0,STARLINK-3572,PAYLOAD,2022-03-28 22:00:00,15.73254205,0.0001299,53.2196,18.8825,85.5735,125.0428,-0.00046275,-0.00065212,0.0,0 STARLINK-3572,1 51879U 22022AD  22087.91667824 -.00065212  00000-0 -46275-3 0  9995,2 51879  53.2196  18.8825 0001299  85.5735 125.0428 15.73254205  5207,6727.741,91.53,350.48,348.732,0.0
51879.0,STARLINK-3572,PAYLOAD,2022-03-29 14:00:01,15.72649803,0.0001328,53.2182,15.5717,78.6517,309.8939,0.0057225,0.00870995,0.0,0 STARLINK-3572,1 51879U 22022AD  22088.58334491  .00870995  00000-0  57225-2 0  9996,2 51879  53.2182  15.5717 0001328  78.6517 309.8939 15.72649803  3668,6729.464,91.565,352.223,350.436,0.0
51879.0,STARLINK-3572,PAYLOAD,2022-03-29 22:00:00,15.73206171,0.0001283,53.2175,13.9194,70.4466,46.7092,-2.381e-05,-3.961e-05,0.0,0 STARLINK-3572,1 51879U 22022AD  22088.91667824 -.00003961  00000-0 -23810-4 0  9990,2 51879  53.2175  13.9194 0001283  70.4466  46.7092 15.73206171  3692,6727.878000000002,91.533,350.606,348.879,0.0
51879.0,STARLINK-3572,PAYLOAD,2022-03-30 04:00:00,15.731759099999998,0.0001165,53.2181,12.6991,78.1302,15.9982,0.00070112,0.00098839,0.0,0 STARLINK-3572,1 51879U 22022AD  22089.16667824  .00098839  00000-0  70112-3 0  9990,2 51879  53.2181  12.6991 0001165  78.1302  15.9982 15.73175910  5394,6727.964,91.535,350.61300000000006,349.045,0.0
51879.0,STARLINK-3572,PAYLOAD,2022-03-30 12:00:00,15.73274085,0.0001141,53.2174,11.048,86.3038,96.7624,-0.00076138,-0.00106467,0.0,0 STARLINK-3572,1 51879U 22022AD  22089.50001157 -.00106467  00000-0 -76138-3 0  9992,2 51879  53.2174  11.0480 0001141  86.3038  96.7624 15.73274085  5453,6727.684,91.529,350.31699999999995,348.781,0.0
51879.0,STARLINK-3572,PAYLOAD,2022-03-30 14:00:01,15.73223518,0.0001122,53.2173,10.6352,89.6827,205.704,-0.00037342,-0.0005275,0.0,0 STARLINK-3572,1 51879U 22022AD  22089.58335648 -.00052750  00000-0 -37342-3 0  9994,2 51879  53.2173  10.6352 0001122  89.6827 205.7040 15.73223518  3677,6727.828,91.532,350.4480000000001,348.93800000000016,0.0
51879.0,STARLINK-3572,PAYLOAD,2022-03-30 22:00:00,15.73200588,0.0001079,53.2176,8.9864,88.1124,296.1391,-5.456600000000001e-05,-8.27e-05,0.0,0 STARLINK-3572,1 51879U 22022AD  22089.91667824 -.00008270  00000-0 -54566-4 0  9991,2 51879  53.2176   8.9864 0001079  88.1124 296.1391 15.73200588  3724,6727.893,91.533,350.4840000000001,349.033,0.0
51879.0,STARLINK-3572,PAYLOAD,2022-03-31 06:00:00,15.73196106,9.9e-05,53.2174,7.3383,75.3868,37.8033,-0.00038196,-0.00053872,0.0,0 STARLINK-3572,1 51879U 22022AD  22090.25001157 -.00053872  00000-0 -38196-3 0  9999,2 51879  53.2174   7.3383 0000990  75.3868  37.8033 15.73196106  5562,6727.906,91.533,350.43699999999984,349.105,0.0
51879.0,STARLINK-3572,PAYLOAD,2022-03-31 14:00:01,15.73115728,9.58e-05,53.2173,5.6869,91.2001,110.9097,0.00072895,0.00102568,0.0,0 STARLINK-3572,1 51879U 22022AD  22090.58334491  .00102568  00000-0  72895-3 0  9994,2 51879  53.2173   5.6869 0000958  91.2001 110.9097 15.73115728  3697,6728.135,91.538,350.645,349.356,0.0
51879.0,STARLINK-3572,PAYLOAD,2022-03-31 22:00:00,15.73204675,0.0001057,53.2173,4.0387,89.3781,201.5976,0.00021978,0.00030342,0.0,0 STARLINK-3572,1 51879U 22022AD  22090.91667824  .00030342  00000-0  21978-3 0  9996,2 51879  53.2173   4.0387 0001057  89.3781 201.5976 15.73204675  5672,6727.882,91.533,350.458,349.036,0.0
51879.0,STARLINK-3572,PAYLOAD,2022-04-01 06:00:00,15.73268649,0.0001032,53.2167,2.3904,80.0362,299.9399,-0.000156,-0.00022519,0.0,0 STARLINK-3572,1 51879U 22022AD  22091.25001157 -.00022519  00000-0 -15600-3 0  9999,2 51879  53.2167   2.3904 0001032  80.0362 299.9399 15.73268649  5724,6727.699000000001,91.529,350.259,348.87,0.0
51879.0,STARLINK-3572,PAYLOAD,2022-04-01 14:00:01,15.73216176,0.0001073,53.217,0.7387,97.5296,11.4431,-0.00013873,-0.00020056,0.0,0 STARLINK-3572,1 51879U 22022AD  22091.58334491 -.00020056  00000-0 -13873-3 0  9999,2 51879  53.2170   0.7387 0001073  97.5296  11.4431 15.73216176  5776,6727.849,91.532,350.436,348.992,0.0
51879.0,STARLINK-3572,PAYLOAD,2022-04-01 22:00:00,15.73193764,0.0001302,53.2172,359.0902,91.3408,106.5441,-0.00075404,-0.00105104,0.0,0 STARLINK-3572,1 51879U 22022AD  22091.91667824 -.00105104  00000-0 -75404-3 0  9991,2 51879  53.2172 359.0902 0001302  91.3408 106.5441 15.73193764  3674,6727.913000000001,91.534,350.654,348.902,0.0
51879.0,STARLINK-3572,PAYLOAD,2022-04-02 06:00:00,15.73120071,0.0001177,53.2168,357.4367,81.8583,204.9048,0.00010526,0.00014128,0.0,0 STARLINK-3572,1 51879U 22022AD  22092.25001157  .00014128  00000-0  10526-3 0  9997,2 51879  53.2168 357.4367 0001177  81.8583 204.9048 15.73120071  5886,6728.123000000001,91.538,350.78,349.196,0.0
51879.0,STARLINK-3572,PAYLOAD,2022-04-02 14:00:01,15.73096911,0.0001272,53.2168,355.7904,96.6939,279.0651,0.00087965,0.00124122,0.0,0 STARLINK-3572,1 51879U 22022AD  22092.58335648  .00124122  00000-0  87965-3 0  9995,2 51879  53.2168 355.7904 0001272  96.6939 279.0651 15.73096911  5933,6728.189,91.539,350.91,349.1980000000001,0.0
51879.0,STARLINK-3572,PAYLOAD,2022-04-02 22:00:01,15.7323193,0.0001218,53.2165,354.1425,92.9285,11.6963,-0.00069206,-0.00096767,0.0,0 STARLINK-3572,1 51879U 22022AD  22092.91668981 -.00096767  00000-0 -69206-3 0  9994,2 51879  53.2165 354.1425 0001218  92.9285  11.6963 15.73231930  3693,6727.804,91.531,350.48900000000015,348.85,0.0
51879.0,STARLINK-3572,PAYLOAD,2022-04-03 04:00:00,15.73144839,0.0001153,53.2163,352.9065,86.5973,354.6823,0.00017737,0.00024286,0.0,0 STARLINK-3572,1 51879U 22022AD  22093.16667824  .00024286  00000-0  17737-3 0  9994,2 51879  53.2163 352.9065 0001153  86.5973 354.6823 15.73144839  6024,6728.052,91.536,350.6930000000001,349.142,0.0
51879.0,STARLINK-3572,PAYLOAD,2022-04-03 22:00:00,15.73153449,0.000145,53.2165,349.1943,93.9569,277.2913,0.00028182,0.00039037,0.0,0 STARLINK-3572,1 51879U 22022AD  22093.91667824  .00039037  00000-0  28182-3 0  9993,2 51879  53.2165 349.1943 0001450  93.9569 277.2913 15.73153449  6142,6728.028,91.536,350.86800000000005,348.917,0.0
51879.0,STARLINK-3572,PAYLOAD,2022-04-04 14:00:01,15.73154352,0.0001106,53.216,345.8939,103.5307,85.5398,0.0008477,0.00119824,0.0,0 STARLINK-3572,1 51879U 22022AD  22094.58334491  .00119824  00000-0  84770-3 0  9996,2 51879  53.2160 345.8939 0001106 103.5307  85.5398 15.73154352  3701,6728.025,91.536,350.634,349.146,0.0
51879.0,STARLINK-3572,PAYLOAD,2022-04-04 22:00:00,15.73259858,0.0001116,53.2158,344.2461,94.9049,183.0963,0.00010591,0.00014307,0.0,0 STARLINK-3572,1 51879U 22022AD  22094.91667824  .00014307  00000-0  10591-3 0  9992,2 51879  53.2158 344.2461 0001116  94.9049 183.0963 15.73259858  3673,6727.725,91.53,350.34,348.839,0.0
51879.0,STARLINK-3572,PAYLOAD,2022-04-05 06:00:00,15.73285919,0.0001034,53.2153,342.5967,91.7362,275.27,-0.00050324,-0.0007091,0.0,0 STARLINK-3572,1 51879U 22022AD  22095.25001157 -.00070910  00000-0 -50324-3 0  9993,2 51879  53.2153 342.5967 0001034  91.7362 275.2700 15.73285919  6350,6727.65,91.528,350.211,348.82,0.0
51879.0,STARLINK-3572,PAYLOAD,2022-04-05 14:00:01,15.73201672,9.52e-05,53.2155,340.9449,110.4121,345.6517,-0.00020842,-0.00029767,0.0,0 STARLINK-3572,1 51879U 22022AD  22095.58335648 -.00029767  00000-0 -20842-3 0  9990,2 51879  53.2155 340.9449 0000952 110.4121 345.6517 15.73201672  3718,6727.89,91.533,350.396,349.115,0.0
51879.0,STARLINK-3572,PAYLOAD,2022-04-05 16:00:00,15.73196845,9.75e-05,53.2158,340.5326,110.8851,97.3358,-0.00029609,-0.0004196,0.0,0 STARLINK-3572,1 51879U 22022AD  22095.66667824 -.00041960  00000-0 -29609-3 0  9992,2 51879  53.2158 340.5326 0000975 110.8851  97.3358 15.73196845  6420,6727.904,91.533,350.425,349.11300000000006,0.0
